{
  "type": "FeatureCollection",
  "features": [
    {
      "type": "Feature",
      "properties": {
        "norad_id": 66906,
        "name": "1998-067XS",
        "group": "last-30-days",
        "lat": 48.017439826263114,
        "lon": -64.81730784883072,
        "alt_km": 408.7268351161392,
        "timestamp": "2025-12-05T18:53:12.098410+00:00",
        "meta_object_name": "1998-067XS",
        "meta_object_id": "1998-067XS",
        "meta_epoch": "2025-12-04T20:45:28.746720",
        "meta_mean_motion": 15.49986178,
        "meta_eccentricity": 0.00041746,
        "meta_inclination": 51.6291,
        "meta_ra_of_asc_node": 181.4578,
        "meta_arg_of_pericenter": 168.934,
        "meta_mean_anomaly": 191.1741,
        "meta_ephemeris_type": 0,
        "meta_classification_type": "U",
        "meta_norad_cat_id": 66906,
        "meta_element_set_no": 999,
        "meta_rev_at_epoch": 39,
        "meta_bstar": 0.000624818,
        "meta_mean_motion_dot": 0.00035352,
        "meta_mean_motion_ddot": 0,
        "tle_line1": "1 66906U 98067XS  25338.86491605  .00035352  00000+0  62482-3 0  9999",
        "tle_line2": "2 66906  51.6291 181.4578 0004174 168.9340 191.1741 15.49986178   398"
      },
      "geometry": {
        "type": "Point",
        "coordinates": [
          -64.81730784883072,
          48.017439826263114
        ]
      }
    },
    {
      "type": "Feature",
      "properties": {
        "norad_id": 66907,
        "name": "1998-067XT",
        "group": "last-30-days",
        "lat": 47.45068521117239,
        "lon": -62.79781129291903,
        "alt_km": 408.35231156407553,
        "timestamp": "2025-12-05T18:53:12.098422+00:00",
        "meta_object_name": "1998-067XT",
        "meta_object_id": "1998-067XT",
        "meta_epoch": "2025-12-04T14:33:58.780512",
        "meta_mean_motion": 15.5013594,
        "meta_eccentricity": 0.00051159,
        "meta_inclination": 51.6278,
        "meta_ra_of_asc_node": 182.735,
        "meta_arg_of_pericenter": 181.696,
        "meta_mean_anomaly": 178.4012,
        "meta_ephemeris_type": 0,
        "meta_classification_type": "U",
        "meta_norad_cat_id": 66907,
        "meta_element_set_no": 999,
        "meta_rev_at_epoch": 35,
        "meta_bstar": 0.0016214223,
        "meta_mean_motion_dot": 0.00093671,
        "meta_mean_motion_ddot": 0,
        "tle_line1": "1 66907U 98067XT  25338.60693033  .00093671  00000+0  16214-2 0  9990",
        "tle_line2": "2 66907  51.6278 182.7350 0005115 181.6960 178.4012 15.50135940   352"
      },
      "geometry": {
        "type": "Point",
        "coordinates": [
          -62.79781129291903,
          47.45068521117239
        ]
      }
    },
    {
      "type": "Feature",
      "properties": {
        "norad_id": 66908,
        "name": "1998-067XU",
        "group": "last-30-days",
        "lat": 47.253931934622734,
        "lon": -62.13076809508187,
        "alt_km": 408.2140668444954,
        "timestamp": "2025-12-05T18:53:12.098433+00:00",
        "meta_object_name": "1998-067XU",
        "meta_object_id": "1998-067XU",
        "meta_epoch": "2025-12-04T23:50:53.483712",
        "meta_mean_motion": 15.50281808,
        "meta_eccentricity": 0.00055383,
        "meta_inclination": 51.6288,
        "meta_ra_of_asc_node": 180.8149,
        "meta_arg_of_pericenter": 185.3725,
        "meta_mean_anomaly": 174.7205,
        "meta_ephemeris_type": 0,
        "meta_classification_type": "U",
        "meta_norad_cat_id": 66908,
        "meta_element_set_no": 999,
        "meta_rev_at_epoch": 41,
        "meta_bstar": 0.0015643981,
        "meta_mean_motion_dot": 0.00090804,
        "meta_mean_motion_ddot": 0,
        "tle_line1": "1 66908U 98067XU  25338.99367458  .00090804  00000+0  15644-2 0  9993",
        "tle_line2": "2 66908  51.6288 180.8149 0005538 185.3725 174.7205 15.50281808   413"
      },
      "geometry": {
        "type": "Point",
        "coordinates": [
          -62.13076809508187,
          47.253931934622734
        ]
      }
    },
    {
      "type": "Feature",
      "properties": {
        "norad_id": 66909,
        "name": "1998-067XV",
        "group": "last-30-days",
        "lat": 47.24114942247848,
        "lon": -62.087479195210015,
        "alt_km": 408.2761112033768,
        "timestamp": "2025-12-05T18:53:12.098443+00:00",
        "meta_object_name": "1998-067XV",
        "meta_object_id": "1998-067XV",
        "meta_epoch": "2025-12-04T23:50:52.274976",
        "meta_mean_motion": 15.50264508,
        "meta_eccentricity": 0.0005497,
        "meta_inclination": 51.629,
        "meta_ra_of_asc_node": 180.8148,
        "meta_arg_of_pericenter": 185.5625,
        "meta_mean_anomaly": 174.5303,
        "meta_ephemeris_type": 0,
        "meta_classification_type": "U",
        "meta_norad_cat_id": 66909,
        "meta_element_set_no": 999,
        "meta_rev_at_epoch": 41,
        "meta_bstar": 0.0015898,
        "meta_mean_motion_dot": 0.00092243,
        "meta_mean_motion_ddot": 0,
        "tle_line1": "1 66909U 98067XV  25338.99366059  .00092243  00000+0  15898-2 0  9990",
        "tle_line2": "2 66909  51.6290 180.8148 0005497 185.5625 174.5303 15.50264508   416"
      },
      "geometry": {
        "type": "Point",
        "coordinates": [
          -62.087479195210015,
          47.24114942247848
        ]
      }
    },
    {
      "type": "Feature",
      "properties": {
        "norad_id": 66910,
        "name": "1998-067XW",
        "group": "last-30-days",
        "lat": 45.73615803374358,
        "lon": -57.513366219886514,
        "alt_km": 406.39121598736347,
        "timestamp": "2025-12-05T18:53:12.098452+00:00",
        "meta_object_name": "1998-067XW",
        "meta_object_id": "1998-067XW",
        "meta_epoch": "2025-12-05T01:22:59.154240",
        "meta_mean_motion": 15.50553772,
        "meta_eccentricity": 0.0006416,
        "meta_inclination": 51.6287,
        "meta_ra_of_asc_node": 180.4926,
        "meta_arg_of_pericenter": 172.5367,
        "meta_mean_anomaly": 187.5719,
        "meta_ephemeris_type": 0,
        "meta_classification_type": "U",
        "meta_norad_cat_id": 66910,
        "meta_element_set_no": 999,
        "meta_rev_at_epoch": 42,
        "meta_bstar": 0.0014713,
        "meta_mean_motion_dot": 0.00086166,
        "meta_mean_motion_ddot": 0,
        "tle_line1": "1 66910U 98067XW  25339.05762910  .00086166  00000+0  14713-2 0  9998",
        "tle_line2": "2 66910  51.6287 180.4926 0006416 172.5367 187.5719 15.50553772   425"
      },
      "geometry": {
        "type": "Point",
        "coordinates": [
          -57.513366219886514,
          45.73615803374358
        ]
      }
    },
    {
      "type": "Feature",
      "properties": {
        "norad_id": 66911,
        "name": "1998-067XX",
        "group": "last-30-days",
        "lat": 45.613872397896074,
        "lon": -57.174248533795286,
        "alt_km": 406.24681380015045,
        "timestamp": "2025-12-05T18:53:12.098462+00:00",
        "meta_object_name": "1998-067XX",
        "meta_object_id": "1998-067XX",
        "meta_epoch": "2025-12-05T01:22:57.118656",
        "meta_mean_motion": 15.50597834,
        "meta_eccentricity": 0.0006353,
        "meta_inclination": 51.6287,
        "meta_ra_of_asc_node": 180.4927,
        "meta_arg_of_pericenter": 172.5612,
        "meta_mean_anomaly": 187.5473,
        "meta_ephemeris_type": 0,
        "meta_classification_type": "U",
        "meta_norad_cat_id": 66911,
        "meta_element_set_no": 999,
        "meta_rev_at_epoch": 41,
        "meta_bstar": 0.001631828,
        "meta_mean_motion_dot": 0.00095888,
        "meta_mean_motion_ddot": 0,
        "tle_line1": "1 66911U 98067XX  25339.05760554  .00095888  00000+0  16318-2 0  9995",
        "tle_line2": "2 66911  51.6287 180.4927 0006353 172.5612 187.5473 15.50597834   413"
      },
      "geometry": {
        "type": "Point",
        "coordinates": [
          -57.174248533795286,
          45.613872397896074
        ]
      }
    },
    {
      "type": "Feature",
      "properties": {
        "norad_id": 66912,
        "name": "1998-067XY",
        "group": "last-30-days",
        "lat": 47.6764498709433,
        "lon": -63.58474552231874,
        "alt_km": 408.68465578780433,
        "timestamp": "2025-12-05T18:53:12.098472+00:00",
        "meta_object_name": "1998-067XY",
        "meta_object_id": "1998-067XY",
        "meta_epoch": "2025-12-04T20:45:22.504320",
        "meta_mean_motion": 15.50112041,
        "meta_eccentricity": 0.00053164,
        "meta_inclination": 51.6281,
        "meta_ra_of_asc_node": 181.4549,
        "meta_arg_of_pericenter": 183.1842,
        "meta_mean_anomaly": 176.9114,
        "meta_ephemeris_type": 0,
        "meta_classification_type": "U",
        "meta_norad_cat_id": 66912,
        "meta_element_set_no": 999,
        "meta_rev_at_epoch": 38,
        "meta_bstar": 0.0012051689,
        "meta_mean_motion_dot": 0.00069233,
        "meta_mean_motion_ddot": 0,
        "tle_line1": "1 66912U 98067XY  25338.86484380  .00069233  00000+0  12052-2 0  9990",
        "tle_line2": "2 66912  51.6281 181.4549 0005316 183.1842 176.9114 15.50112041   383"
      },
      "geometry": {
        "type": "Point",
        "coordinates": [
          -63.58474552231874,
          47.6764498709433
        ]
      }
    }
  ]
}